[{"OBJECT_NAME":"STARLINK-34805","OBJECT_ID":"2025-165R","EPOCH":"2026-03-09T17:29:29.820768","MEAN_MOTION":15.05650108,"ECCENTRICITY":7.037e-5,"INCLINATION":97.6032,"RA_OF_ASC_NODE":147.2278,"ARG_OF_PERICENTER":127.4817,"MEAN_ANOMALY":232.6474,"EPHEMERIS_TYPE":0,"CLASSIFICATION_TYPE":"U","NORAD_CAT_ID":65071,"ELEMENT_SET_NO":999,"REV_AT_EPOCH":3479,"BSTAR":6.8802336e-5,"MEAN_MOTION_DOT":9.32e-6,"MEAN_MOTION_DDOT":0},{"OBJECT_NAME":"COSMOS 2251 DEB","OBJECT_ID":"1993-036BKG","EPOCH":"2026-03-09T09:02:46.626720","MEAN_MOTION":15.0055284,"ECCENTRICITY":0.00290136,"INCLINATION":74.0178,"RA_OF_ASC_NODE":205.5033,"ARG_OF_PERICENTER":262.6992,"MEAN_ANOMALY":97.0897,"EPHEMERIS_TYPE":0,"CLASSIFICATION_TYPE":"U","NORAD_CAT_ID":37316,"ELEMENT_SET_NO":999,"REV_AT_EPOCH":87440,"BSTAR":0.002851028,"MEAN_MOTION_DOT":0.00036448,"MEAN_MOTION_DDOT":0}]
